[{"OBJECT_NAME":"STARLINK-36544","OBJECT_ID":"2026-012AA","EPOCH":"2026-03-09T01:02:36.803328","MEAN_MOTION":15.2760445,"ECCENTRICITY":0.00017179,"INCLINATION":43.0014,"RA_OF_ASC_NODE":317.9857,"ARG_OF_PERICENTER":262.4018,"MEAN_ANOMALY":97.6639,"EPHEMERIS_TYPE":0,"CLASSIFICATION_TYPE":"U","NORAD_CAT_ID":67517,"ELEMENT_SET_NO":999,"REV_AT_EPOCH":766,"BSTAR":0.0013436943,"MEAN_MOTION_DOT":0.00036927,"MEAN_MOTION_DDOT":0},{"OBJECT_NAME":"CERISE","OBJECT_ID":"1995-033B","EPOCH":"2026-03-09T23:11:27.589056","MEAN_MOTION":15.32047731,"ECCENTRICITY":0.00057118,"INCLINATION":98.325,"RA_OF_ASC_NODE":273.5192,"ARG_OF_PERICENTER":211.8754,"MEAN_ANOMALY":148.214,"EPHEMERIS_TYPE":0,"CLASSIFICATION_TYPE":"U","NORAD_CAT_ID":23606,"ELEMENT_SET_NO":999,"REV_AT_EPOCH":66468,"BSTAR":0.00062940675,"MEAN_MOTION_DOT":0.00019422,"MEAN_MOTION_DDOT":0}]
